{"type": "FeatureCollection", "features": [ {"type": "Feature", "properties": {"norad_id": 35834, "name": "COSMOS 2251 DEB", "group": "cosmos-2251-debris", "lat": -5.20822698076305, "lon": -65.99681853978223, "alt_km": 865.0886245987058, "timestamp": "2025-12-17T19:34:08.434398+00:00", "meta": {"OBJECT_NAME": "COSMOS 2251 DEB", "OBJECT_ID": "1993-036ATG", "EPOCH": "2025-12-17T02:40:38.175744", "MEAN_MOTION": 14.12986684, "ECCENTRICITY": 0.01092954, "INCLINATION": 73.9324, "RA_OF_ASC_NODE": 296.7605, "ARG_OF_PERICENTER": 95.953, "MEAN_ANOMALY": 281.2032, "EPHEMERIS_TYPE": 0, "CLASSIFICATION_TYPE": "U", "NORAD_CAT_ID": 35834, "ELEMENT_SET_NO": 999, "REV_AT_EPOCH": 66325, "BSTAR": 0.00039176741, "MEAN_MOTION_DOT": 7.48e-06, "MEAN_MOTION_DDOT": 0}, "tle": {"line1": "1 35834U 93036ATG 25351.11155296  .00000748  00000+0  39177-3 0  9998", "line2": "2 35834  73.9324 296.7605 0109295  95.9530 281.2032 14.12986684663254"}}, "geometry": {"type": "Point", "coordinates": [-65.99681853978223, -5.20822698076305]}}, {"type": "Feature", "properties": {"norad_id": 35835, "name": "COSMOS 2251 DEB", "group": "cosmos-2251-debris", "lat": 68.03099162944898, "lon": 34.81322036374765, "alt_km": 851.453253433925, "timestamp": "2025-12-17T19:34:08.434408+00:00", "meta": {"OBJECT_NAME": "COSMOS 2251 DEB", "OBJECT_ID": "1993-036ATH", "EPOCH": "2025-12-14T02:32:38.290272", "MEAN_MOTION": 13.82885991, "ECCENTRICITY": 0.02905018, "INCLINATION": 74.0643, "RA_OF_ASC_NODE": 266.1402, "ARG_OF_PERICENTER": 47.4139, "MEAN_ANOMALY": 315.1102, "EPHEMERIS_TYPE": 0, "CLASSIFICATION_TYPE": "U", "NORAD_CAT_ID": 35835, "ELEMENT_SET_NO": 999, "REV_AT_EPOCH": 61718, "BSTAR": 0.0018908593, "MEAN_MOTION_DOT": 2.83e-05, "MEAN_MOTION_DDOT": 0}, "tle": {"line1": "1 35835U 93036ATH 25348.10599873  .00002830  00000+0  18909-2 0  9990", "line2": "2 35835  74.0643 266.1402 0290501  47.4139 315.1102 13.82885991617186"}}, "geometry": {"type": "Point", "coordinates": [34.81322036374765, 68.03099162944898]}}, {"type": "Feature", "properties": {"norad_id": 35836, "name": "COSMOS 2251 DEB", "group": "cosmos-2251-debris", "lat": 48.30442794388945, "lon": -35.67224176971756, "alt_km": 653.4381759710113, "timestamp": "2025-12-17T19:34:08.434418+00:00", "meta": {"OBJECT_NAME": "COSMOS 2251 DEB", "OBJECT_ID": "1993-036ATJ", "EPOCH": "2025-12-15T04:57:37.173600", "MEAN_MOTION": 14.7102941, "ECCENTRICITY": 0.00240331, "INCLINATION": 74.0312, "RA_OF_ASC_NODE": 168.1432, "ARG_OF_PERICENTER": 226.3716, "MEAN_ANOMALY": 133.5463, "EPHEMERIS_TYPE": 0, "CLASSIFICATION_TYPE": "U", "NORAD_CAT_ID": 35836, "ELEMENT_SET_NO": 999, "REV_AT_EPOCH": 63556, "BSTAR": 0.0012109146, "MEAN_MOTION_DOT": 7.444e-05, "MEAN_MOTION_DDOT": 0}, "tle": {"line1": "1 35836U 93036ATJ 25349.20668025  .00007444  00000+0  12109-2 0  9991", "line2": "2 35836  74.0312 168.1432 0024033 226.3716 133.5463 14.71029410635567"}}, "geometry": {"type": "Point", "coordinates": [-35.67224176971756, 48.30442794388945]}}, {"type": "Feature", "properties": {"norad_id": 35837, "name": "COSMOS 2251 DEB", "group": "cosmos-2251-debris", "lat": -67.68166830995204, "lon": 64.55960331830718, "alt_km": 1245.2125343259886, "timestamp": "2025-12-17T19:34:08.434428+00:00", "meta": {"OBJECT_NAME": "COSMOS 2251 DEB", "OBJECT_ID": "1993-036ATK", "EPOCH": "2025-12-16T23:21:00.080640", "MEAN_MOTION": 13.63500848, "ECCENTRICITY": 0.04220019, "INCLINATION": 73.7226, "RA_OF_ASC_NODE": 200.5847, "ARG_OF_PERICENTER": 120.7082, "MEAN_ANOMALY": 316.5322, "EPHEMERIS_TYPE": 0, "CLASSIFICATION_TYPE": "U", "NORAD_CAT_ID": 35837, "ELEMENT_SET_NO": 999, "REV_AT_EPOCH": 58034, "BSTAR": 0.0021838003, "MEAN_MOTION_DOT": 3.133e-05, "MEAN_MOTION_DDOT": 0}, "tle": {"line1": "1 35837U 93036ATK 25350.97291760  .00003133  00000+0  21838-2 0  9996", "line2": "2 35837  73.7226 200.5847 0422001 120.7082 316.5322 13.63500848580340"}}, "geometry": {"type": "Point", "coordinates": [64.55960331830718, -67.68166830995204]}}, {"type": "Feature", "properties": {"norad_id": 35839, "name": "COSMOS 2251 DEB", "group": "cosmos-2251-debris", "lat": 27.273936772893116, "lon": 124.03237313436148, "alt_km": 395.51973849143906, "timestamp": "2025-12-17T19:34:08.434438+00:00", "meta": {"OBJECT_NAME": "COSMOS 2251 DEB", "OBJECT_ID": "1993-036ATM", "EPOCH": "2025-12-16T15:08:07.290816", "MEAN_MOTION": 15.55085183, "ECCENTRICITY": 0.00039845, "INCLINATION": 74.2053, "RA_OF_ASC_NODE": 315.0166, "ARG_OF_PERICENTER": 133.4354, "MEAN_ANOMALY": 226.7195, "EPHEMERIS_TYPE": 0, "CLASSIFICATION_TYPE": "U", "NORAD_CAT_ID": 35839, "ELEMENT_SET_NO": 999, "REV_AT_EPOCH": 88628, "BSTAR": 0.0051685492, "MEAN_MOTION_DOT": 0.0036429, "MEAN_MOTION_DDOT": 0}, "tle": {"line1": "1 35839U 93036ATM 25350.63063994  .00364290  00000+0  51685-2 0  9994", "line2": "2 35839  74.2053 315.0166 0003984 133.4354 226.7195 15.55085183886285"}}, "geometry": {"type": "Point", "coordinates": [124.03237313436148, 27.273936772893116]}}, {"type": "Feature", "properties": {"norad_id": 35840, "name": "COSMOS 2251 DEB", "group": "cosmos-2251-debris", "lat": -27.78008485549503, "lon": 140.0402616419342, "alt_km": 754.1038460739173, "timestamp": "2025-12-17T19:34:08.434448+00:00", "meta": {"OBJECT_NAME": "COSMOS 2251 DEB", "OBJECT_ID": "1993-036ATN", "EPOCH": "2025-12-12T04:26:56.474304", "MEAN_MOTION": 14.37821687, "ECCENTRICITY": 0.01162768, "INCLINATION": 73.9307, "RA_OF_ASC_NODE": 159.2062, "ARG_OF_PERICENTER": 61.7798, "MEAN_ANOMALY": 299.5037, "EPHEMERIS_TYPE": 0, "CLASSIFICATION_TYPE": "U", "NORAD_CAT_ID": 35840, "ELEMENT_SET_NO": 999, "REV_AT_EPOCH": 85283, "BSTAR": 0.0026691111, "MEAN_MOTION_DOT": 8.683e-05, "MEAN_MOTION_DDOT": 0}, "tle": {"line1": "1 35840U 93036ATN 25346.18537586  .00008683  00000+0  26691-2 0  9994", "line2": "2 35840  73.9307 159.2062 0116276  61.7798 299.5037 14.37821687852835"}}, "geometry": {"type": "Point", "coordinates": [140.0402616419342, -27.78008485549503]}}, {"type": "Feature", "properties": {"norad_id": 35883, "name": "COSMOS 2251 DEB", "group": "cosmos-2251-debris", "lat": -24.122540074768267, "lon": -112.15117609735502, "alt_km": 671.8540529156298, "timestamp": "2025-12-17T19:34:08.434458+00:00", "meta": {"OBJECT_NAME": "COSMOS 2251 DEB", "OBJECT_ID": "1993-036ATW", "EPOCH": "2025-12-16T04:41:35.789568", "MEAN_MOTION": 14.50615193, "ECCENTRICITY": 0.00835028, "INCLINATION": 74.0253, "RA_OF_ASC_NODE": 63.5249, "ARG_OF_PERICENTER": 192.1269, "MEAN_ANOMALY": 197.0315, "EPHEMERIS_TYPE": 0, "CLASSIFICATION_TYPE": "U", "NORAD_CAT_ID": 35883, "ELEMENT_SET_NO": 999, "REV_AT_EPOCH": 62436, "BSTAR": 0.00022216854, "MEAN_MOTION_DOT": 8.82e-06, "MEAN_MOTION_DDOT": 0}, "tle": {"line1": "1 35883U 93036ATW 25350.19555312  .00000882  00000+0  22217-3 0  9998", "line2": "2 35883  74.0253  63.5249 0083502 192.1269 197.0315 14.50615193624369"}}, "geometry": {"type": "Point", "coordinates": [-112.15117609735502, -24.122540074768267]}}, {"type": "Feature", "properties": {"norad_id": 35884, "name": "COSMOS 2251 DEB", "group": "cosmos-2251-debris", "lat": -11.139609710041762, "lon": 150.0593733544326, "alt_km": 794.4786587317494, "timestamp": "2025-12-17T19:34:08.434468+00:00", "meta": {"OBJECT_NAME": "COSMOS 2251 DEB", "OBJECT_ID": "1993-036ATX", "EPOCH": "2025-12-16T07:19:09.379488", "MEAN_MOTION": 14.25680751, "ECCENTRICITY": 0.01084022, "INCLINATION": 73.9902, "RA_OF_ASC_NODE": 329.5521, "ARG_OF_PERICENTER": 115.5254, "MEAN_ANOMALY": 245.7151, "EPHEMERIS_TYPE": 0, "CLASSIFICATION_TYPE": "U", "NORAD_CAT_ID": 35884, "ELEMENT_SET_NO": 999, "REV_AT_EPOCH": 22408, "BSTAR": 0.00087030299, "MEAN_MOTION_DOT": 2.171e-05, "MEAN_MOTION_DDOT": 0}, "tle": {"line1": "1 35884U 93036ATX 25350.30496967  .00002171  00000+0  87030-3 0  9999", "line2": "2 35884  73.9902 329.5521 0108402 115.5254 245.7151 14.25680751224085"}}, "geometry": {"type": "Point", "coordinates": [150.0593733544326, -11.139609710041762]}}, {"type": "Feature", "properties": {"norad_id": 35885, "name": "COSMOS 2251 DEB", "group": "cosmos-2251-debris", "lat": -16.232903648944742, "lon": 110.23311863160208, "alt_km": 787.5307931107891, "timestamp": "2025-12-17T19:34:08.434477+00:00", "meta": {"OBJECT_NAME": "COSMOS 2251 DEB", "OBJECT_ID": "1993-036ATY", "EPOCH": "2025-12-17T05:17:41.219808", "MEAN_MOTION": 14.37529063, "ECCENTRICITY": 0.00234635, "INCLINATION": 74.0285, "RA_OF_ASC_NODE": 286.5447, "ARG_OF_PERICENTER": 5.992, "MEAN_ANOMALY": 354.151, "EPHEMERIS_TYPE": 0, "CLASSIFICATION_TYPE": "U", "NORAD_CAT_ID": 35885, "ELEMENT_SET_NO": 999, "REV_AT_EPOCH": 65080, "BSTAR": 0.00026556443, "MEAN_MOTION_DOT": 7.72e-06, "MEAN_MOTION_DDOT": 0}, "tle": {"line1": "1 35885U 93036ATY 25351.22061597  .00000772  00000+0  26556-3 0  9990", "line2": "2 35885  74.0285 286.5447 0023463   5.9920 354.1510 14.37529063650804"}}, "geometry": {"type": "Point", "coordinates": [110.23311863160208, -16.232903648944742]}}, {"type": "Feature", "properties": {"norad_id": 35888, "name": "COSMOS 2251 DEB", "group": "cosmos-2251-debris", "lat": 8.585509357987, "lon": 164.52904451418132, "alt_km": 679.573665716196, "timestamp": "2025-12-17T19:34:08.434487+00:00", "meta": {"OBJECT_NAME": "COSMOS 2251 DEB", "OBJECT_ID": "1993-036AUB", "EPOCH": "2025-12-16T16:26:58.946208", "MEAN_MOTION": 14.58333122, "ECCENTRICITY": 0.00480696, "INCLINATION": 74.0334, "RA_OF_ASC_NODE": 349.1564, "ARG_OF_PERICENTER": 120.07, "MEAN_ANOMALY": 240.5245, "EPHEMERIS_TYPE": 0, "CLASSIFICATION_TYPE": "U", "NORAD_CAT_ID": 35888, "ELEMENT_SET_NO": 999, "REV_AT_EPOCH": 86331, "BSTAR": 0.00030506199, "MEAN_MOTION_DOT": 1.404e-05, "MEAN_MOTION_DDOT": 0}, "tle": {"line1": "1 35888U 93036AUB 25350.68540447  .00001404  00000+0  30506-3 0  9991", "line2": "2 35888  74.0334 349.1564 0048069 120.0700 240.5245 14.58333122863319"}}, "geometry": {"type": "Point", "coordinates": [164.52904451418132, 8.585509357987]}}]}